[{"OBJECT_NAME":"STARLINK-2039","OBJECT_ID":"2021-012AM","EPOCH":"2026-03-09T06:52:04.911744","MEAN_MOTION":15.3022049,"ECCENTRICITY":0.00015243,"INCLINATION":53.1608,"RA_OF_ASC_NODE":66.9388,"ARG_OF_PERICENTER":96.2115,"MEAN_ANOMALY":263.9059,"EPHEMERIS_TYPE":0,"CLASSIFICATION_TYPE":"U","NORAD_CAT_ID":47655,"ELEMENT_SET_NO":999,"REV_AT_EPOCH":28002,"BSTAR":0.00041146881,"MEAN_MOTION_DOT":0.00011854,"MEAN_MOTION_DDOT":0},{"OBJECT_NAME":"OBJECT J","OBJECT_ID":"2023-085J","EPOCH":"2026-03-09T22:47:59.920512","MEAN_MOTION":15.31507187,"ECCENTRICITY":0.00067028,"INCLINATION":97.4828,"RA_OF_ASC_NODE":180.1819,"ARG_OF_PERICENTER":41.7877,"MEAN_ANOMALY":318.3875,"EPHEMERIS_TYPE":0,"CLASSIFICATION_TYPE":"U","NORAD_CAT_ID":57012,"ELEMENT_SET_NO":999,"REV_AT_EPOCH":15156,"BSTAR":0.00064525349,"MEAN_MOTION_DOT":0.00019595,"MEAN_MOTION_DDOT":0}]
